{
  "type": "FeatureCollection",
  "features": [
    {
      "type": "Feature",
      "properties": {
        "norad_id": 57400,
        "name": "TIANMU-1 08",
        "group": "weather",
        "lat": 46.9481800936777,
        "lon": -127.50385675799619,
        "alt_km": 475.7313913980852,
        "timestamp": "2025-12-21T03:56:50.501537+00:00",
        "meta_object_name": "TIANMU-1 08",
        "meta_object_id": "2023-101B",
        "meta_epoch": "2025-12-20T21:05:02.964192",
        "meta_mean_motion": 15.28159846,
        "meta_eccentricity": 0.0007215,
        "meta_inclination": 97.2853,
        "meta_ra_of_asc_node": 44.3456,
        "meta_arg_of_pericenter": 61.091,
        "meta_mean_anomaly": 299.1053,
        "meta_ephemeris_type": 0,
        "meta_classification_type": "U",
        "meta_norad_cat_id": 57400,
        "meta_element_set_no": 999,
        "meta_rev_at_epoch": 13439,
        "meta_bstar": 0.00018068,
        "meta_mean_motion_dot": 4.889e-05,
        "meta_mean_motion_ddot": 0,
        "tle_line1": "1 57400U 23101B   25354.87850653  .00004889  00000+0  18068-3 0  9998",
        "tle_line2": "2 57400  97.2853  44.3456 0007215  61.0910 299.1053 15.28159846134398"
      },
      "geometry": {
        "type": "Point",
        "coordinates": [
          -127.50385675799619,
          46.9481800936777
        ]
      }
    },
    {
      "type": "Feature",
      "properties": {
        "norad_id": 57401,
        "name": "TIANMU-1 09",
        "group": "weather",
        "lat": -25.92419654163582,
        "lon": -139.4289813384178,
        "alt_km": 490.62908783184776,
        "timestamp": "2025-12-21T03:56:50.501562+00:00",
        "meta_object_name": "TIANMU-1 09",
        "meta_object_id": "2023-101C",
        "meta_epoch": "2025-12-20T20:45:46.783584",
        "meta_mean_motion": 15.28192985,
        "meta_eccentricity": 0.0006477,
        "meta_inclination": 97.281,
        "meta_ra_of_asc_node": 43.8417,
        "meta_arg_of_pericenter": 61.6386,
        "meta_mean_anomaly": 298.5506,
        "meta_ephemeris_type": 0,
        "meta_classification_type": "U",
        "meta_norad_cat_id": 57401,
        "meta_element_set_no": 999,
        "meta_rev_at_epoch": 13439,
        "meta_bstar": 0.00017817,
        "meta_mean_motion_dot": 4.825e-05,
        "meta_mean_motion_ddot": 0,
        "tle_line1": "1 57401U 23101C   25354.86512481  .00004825  00000+0  17817-3 0  9993",
        "tle_line2": "2 57401  97.2810  43.8417 0006477  61.6386 298.5506 15.28192985134392"
      },
      "geometry": {
        "type": "Point",
        "coordinates": [
          -139.4289813384178,
          -25.92419654163582
        ]
      }
    },
    {
      "type": "Feature",
      "properties": {
        "norad_id": 57402,
        "name": "TIANMU-1 10",
        "group": "weather",
        "lat": 17.337765803525556,
        "lon": 42.70287505686637,
        "alt_km": 477.585845751556,
        "timestamp": "2025-12-21T03:56:50.501572+00:00",
        "meta_object_name": "TIANMU-1 10",
        "meta_object_id": "2023-101D",
        "meta_epoch": "2025-12-20T20:00:49.126752",
        "meta_mean_motion": 15.28184025,
        "meta_eccentricity": 0.000822,
        "meta_inclination": 97.2891,
        "meta_ra_of_asc_node": 44.6696,
        "meta_arg_of_pericenter": 60.1194,
        "meta_mean_anomaly": 300.0861,
        "meta_ephemeris_type": 0,
        "meta_classification_type": "U",
        "meta_norad_cat_id": 57402,
        "meta_element_set_no": 999,
        "meta_rev_at_epoch": 13438,
        "meta_bstar": 0.00018351,
        "meta_mean_motion_dot": 4.972e-05,
        "meta_mean_motion_ddot": 0,
        "tle_line1": "1 57402U 23101D   25354.83390193  .00004972  00000+0  18351-3 0  9992",
        "tle_line2": "2 57402  97.2891  44.6696 0008220  60.1194 300.0861 15.28184025134387"
      },
      "geometry": {
        "type": "Point",
        "coordinates": [
          42.70287505686637,
          17.337765803525556
        ]
      }
    },
    {
      "type": "Feature",
      "properties": {
        "norad_id": 57490,
        "name": "FENGYUN 3F",
        "group": "weather",
        "lat": -58.98875041130045,
        "lon": -131.44828491576342,
        "alt_km": 833.1237621654245,
        "timestamp": "2025-12-21T03:56:50.501582+00:00",
        "meta_object_name": "FENGYUN 3F",
        "meta_object_id": "2023-111A",
        "meta_epoch": "2025-12-20T20:03:19.327968",
        "meta_mean_motion": 14.198955,
        "meta_eccentricity": 7.63e-05,
        "meta_inclination": 98.7073,
        "meta_ra_of_asc_node": 62.9981,
        "meta_arg_of_pericenter": 114.0346,
        "meta_mean_anomaly": 246.0911,
        "meta_ephemeris_type": 0,
        "meta_classification_type": "U",
        "meta_norad_cat_id": 57490,
        "meta_element_set_no": 999,
        "meta_rev_at_epoch": 12355,
        "meta_bstar": 4.3637e-05,
        "meta_mean_motion_dot": 4.9e-07,
        "meta_mean_motion_ddot": 0,
        "tle_line1": "1 57490U 23111A   25354.83564037  .00000049  00000+0  43637-4 0  9997",
        "tle_line2": "2 57490  98.7073  62.9981 0000763 114.0346 246.0911 14.19895500123552"
      },
      "geometry": {
        "type": "Point",
        "coordinates": [
          -131.44828491576342,
          -58.98875041130045
        ]
      }
    },
    {
      "type": "Feature",
      "properties": {
        "norad_id": 58584,
        "name": "ARKTIKA-M 2",
        "group": "weather",
        "lat": 51.908661222525545,
        "lon": -46.16549209829568,
        "alt_km": 28223.492802210665,
        "timestamp": "2025-12-21T03:56:50.501593+00:00",
        "meta_object_name": "ARKTIKA-M 2",
        "meta_object_id": "2023-198A",
        "meta_epoch": "2025-12-20T07:20:06.590112",
        "meta_mean_motion": 2.00602824,
        "meta_eccentricity": 0.68654675,
        "meta_inclination": 63.225,
        "meta_ra_of_asc_node": 174.0676,
        "meta_arg_of_pericenter": 268.0739,
        "meta_mean_anomaly": 18.8406,
        "meta_ephemeris_type": 0,
        "meta_classification_type": "U",
        "meta_norad_cat_id": 58584,
        "meta_element_set_no": 999,
        "meta_rev_at_epoch": 1473,
        "meta_bstar": 0,
        "meta_mean_motion_dot": 2.01e-06,
        "meta_mean_motion_ddot": 0,
        "tle_line1": "1 58584U 23198A   25354.30563183  .00000201  00000+0  00000+0 0  9992",
        "tle_line2": "2 58584  63.2250 174.0676 6865467 268.0739  18.8406  2.00602824 14734"
      },
      "geometry": {
        "type": "Point",
        "coordinates": [
          -46.16549209829568,
          51.908661222525545
        ]
      }
    },
    {
      "type": "Feature",
      "properties": {
        "norad_id": 58645,
        "name": "TIANMU-1 11",
        "group": "weather",
        "lat": 82.53124845011173,
        "lon": -84.99352441447793,
        "alt_km": 489.40952923055374,
        "timestamp": "2025-12-21T03:56:50.501604+00:00",
        "meta_object_name": "TIANMU-1 11",
        "meta_object_id": "2023-205A",
        "meta_epoch": "2025-12-20T21:14:52.539648",
        "meta_mean_motion": 15.24689576,
        "meta_eccentricity": 0.0007532,
        "meta_inclination": 97.3595,
        "meta_ra_of_asc_node": 14.3655,
        "meta_arg_of_pericenter": 275.8241,
        "meta_mean_anomaly": 84.2138,
        "meta_ephemeris_type": 0,
        "meta_classification_type": "U",
        "meta_norad_cat_id": 58645,
        "meta_element_set_no": 999,
        "meta_rev_at_epoch": 11033,
        "meta_bstar": 0.00017065,
        "meta_mean_motion_dot": 4.15e-05,
        "meta_mean_motion_ddot": 0,
        "tle_line1": "1 58645U 23205A   25354.88533032  .00004150  00000+0  17065-3 0  9992",
        "tle_line2": "2 58645  97.3595  14.3655 0007532 275.8241  84.2138 15.24689576110335"
      },
      "geometry": {
        "type": "Point",
        "coordinates": [
          -84.99352441447793,
          82.53124845011173
        ]
      }
    },
    {
      "type": "Feature",
      "properties": {
        "norad_id": 58646,
        "name": "TIANMU-1 12",
        "group": "weather",
        "lat": -59.26931164655277,
        "lon": 26.997415660846336,
        "alt_km": 496.4721027215355,
        "timestamp": "2025-12-21T03:56:50.501613+00:00",
        "meta_object_name": "TIANMU-1 12",
        "meta_object_id": "2023-205B",
        "meta_epoch": "2025-12-20T20:20:03.577632",
        "meta_mean_motion": 15.2457443,
        "meta_eccentricity": 0.0005825,
        "meta_inclination": 97.3582,
        "meta_ra_of_asc_node": 14.1309,
        "meta_arg_of_pericenter": 254.4813,
        "meta_mean_anomaly": 105.5782,
        "meta_ephemeris_type": 0,
        "meta_classification_type": "U",
        "meta_norad_cat_id": 58646,
        "meta_element_set_no": 999,
        "meta_rev_at_epoch": 11031,
        "meta_bstar": 0.00017096,
        "meta_mean_motion_dot": 4.142e-05,
        "meta_mean_motion_ddot": 0,
        "tle_line1": "1 58646U 23205B   25354.84726363  .00004142  00000+0  17096-3 0  9995",
        "tle_line2": "2 58646  97.3582  14.1309 0005825 254.4813 105.5782 15.24574430110319"
      },
      "geometry": {
        "type": "Point",
        "coordinates": [
          26.997415660846336,
          -59.26931164655277
        ]
      }
    }
  ]
}